PROBA-1                 
1 26958U 01049B   26199.99590554  .00000500  00000+0  36356-4 0  9998
2 26958  97.9602 209.6419 0055306  17.1097 343.1978 15.07621596348417
CUTE-1 (CO-55)          
1 27844U 03031E   26199.29733931  .00000128  00000+0  74435-4 0  9993
2 27844  98.6744 207.4657 0010867  94.6885 265.5536 14.24352673196104
CUBESAT XI-IV (CO-57)   
1 27848U 03031J   26198.95002441  .00000107  00000+0  66203-4 0  9995
2 27848  98.6776 206.8106 0010632 112.1739 248.0569 14.23635431195756
APRIZESAT 4             
1 35684U 09041D   26199.74730276  .00000287  00000+0  41061-4 0  9995
2 35684  98.1401 275.6954 0042456 217.7364 142.0870 14.83916474916049
APRIZESAT 3             
1 35686U 09041F   26199.86357383  .00000257  00000+0  27875-4 0  9998
2 35686  98.2107 354.6134 0060713 323.6550  36.0553 14.96315589921111
PROBA-2                 
1 36037U 09059B   26199.73957447  .00000057  00000+0  23798-4 0  9999
2 36037  98.2462  22.6567 0013258 177.7124 182.4136 14.54874420886116
APRIZESAT 5             
1 37792U 11044E   26199.75932335  .00000332  00000+0  49354-4 0  9998
2 37792  98.2447 133.6963 0050683 260.9074  98.6400 14.81130594803469
APRIZESAT 6             
1 37793U 11044F   26199.98848558  .00000332  00000+0  54429-4 0  9996
2 37793  98.2332 111.1344 0042741 346.0943  74.9472 14.76959903801847
PROBA-V                 
1 39159U 13021A   26199.88777201  .00000009  00000+0  21960-4 0  9991
2 39159  98.3608 176.9330 0005116  51.2626 308.9010 14.23603712685624
APRIZESAT 7             
1 39416U 13066A   26199.81757943  .00000691  00000+0  73567-4 0  9997
2 39416  97.7723 152.5866 0037303 105.7785 254.7552 14.91623631685940
APRIZESAT 8             
1 39425U 13066K   26199.82106606  .00000364  00000+0  45351-4 0  9999
2 39425  97.8230 146.8510 0045815 179.9033 180.2201 14.87699337684373
BUGSAT-1 (TITA)         
1 40014U 14033E   26199.92149545  .00002321  00000+0  12391-3 0  9992
2 40014  98.0432 294.3339 0029012  73.8219 286.6202 15.15902823660648
SAUDISAT 4              
1 40016U 14033G   26199.90426776  .00000215  00000+0  35276-4 0  9994
2 40016  97.7623 344.9495 0043958 331.8593  28.0244 14.79577645650765
APRIZESAT 9             
1 40018U 14033J   26199.90439838  .00000296  00000+0  50791-4 0  9997
2 40018  97.9100 332.3343 0067510  98.2722 262.6149 14.74255304648239
APRIZESAT 10            
1 40019U 14033K   26199.89530176  .00000296  00000+0  54349-4 0  9996
2 40019  97.9686 326.1538 0079024 171.5515 188.7044 14.70913490646912
TECHDEMOSAT-1 (TDS-1)   
1 40076U 14037H   26199.23129014  .00003422  00000+0  19436-3 0  9997
2 40076  98.3830 194.5338 0007232 149.4673 210.6978 15.13703160652925
TECHNOSAT               
1 42829U 17042E   26199.89604538  .00001297  00000+0  95042-4 0  9991
2 42829  97.4324 356.3565 0017075 351.3804   8.7127 15.05122573491474
FLYING LAPTOP           
1 42831U 17042G   26199.91245191  .00002052  00000+0  16327-3 0  9991
2 42831  97.4828 354.2552 0019539  20.6794 339.5217 15.01327988491210
HAWK-A                  
1 43765U 18099H   26199.71613018  .00003486  00000+0  14030-3 0  9997
2 43765  97.3892 251.5450 0035084 171.6437 188.5393 15.24990780417909
HAWK-B                  
1 43794U 18099AN  26199.70987625  .00003019  00000+0  12918-3 0  9991
2 43794  97.3943 250.8871 0031733 189.6136 170.4498 15.23137637417830
HAWK-C                  
1 43799U 18099AT  26199.94794953  .00004540  00000+0  16237-3 0  9990
2 43799  97.3867 252.8442 0040693 170.6298 189.5710 15.28525388418760
SALSAT                  
1 46495U 20068K   26199.01462697  .00004061  00000+0  14177-3 0  9999
2 46495  97.8861 203.9671 0009495 182.8082 177.3106 15.30195257320078
HAWK-2C                 
1 47502U 21006CT  26199.83718538  .00003507  00000+0  10546-3 0  9990
2 47502  97.2259 243.5203 0008684  90.6516 269.5723 15.35015243304354
HAWK-2A                 
1 47505U 21006CW  26199.57860905  .00003430  00000+0  10312-3 0  9996
2 47505  97.2300 243.9628 0008241  94.6100 265.6085 15.35034159304312
HAWK-2B                 
1 47508U 21006CZ  26199.83257905  .00004006  00000+0  11954-3 0  9991
2 47508  97.2171 242.4941 0008766  92.3093 267.9155 15.35166052304356
HAWK-3B                 
1 48931U 21059BE  26199.09212460  .00031299  00000+0  23996-3 0  9998
2 48931  97.6632  38.7819 0004731 187.5925 172.5267 15.72043913282702
HAWK-3C                 
1 48948U 21059BX  26199.09180544  .00029344  00000+0  22507-3 0  9998
2 48948  97.6749  44.5200 0005037 187.8290 172.2895 15.72043790282703
HAWK-3A                 
1 48957U 21059CG  26199.85552919  .00031385  00000+0  24015-3 0  9995
2 48957  97.6697  42.5394 0004981 187.6639 172.4548 15.72088161282820
HAWK-5C                 
1 52754U 22057Y   26199.83170369  .00010355  00000+0  17136-3 0  9997
2 52754  97.6627   1.5702 0002476 329.0147  31.0959 15.52404760231256
HAWK-5B                 
1 52756U 22057AA  26199.12248197  .00010427  00000+0  17265-3 0  9999
2 52756  97.6638 359.1680 0003199 318.5187  41.5822 15.52385437231149
